{"id":"499","name":"Mars ","centerId":"10","centerName":"Sun ","epoch":"2000-Jan-01 12:00:00.0000","ephemerisType":"ELEMENTS","table":{"eccentricity":0.093315101458261,"periapsis":206668969654.19858,"inclination":1.849876477108884,"longitudeOfAscendingNode":49.56200565861963,"argumentOfPeriapsis":286.5373830861993,"timeOfPeriapsis":2451508.062923341,"meanMotion":0.000006065270600596257,"meanAnomaly":19.35648274725794,"trueAnomaly":23.33319664407224,"semiMajorAxis":227939132973.9729,"apoapsis":249209296293.7473,"siderealOrbitPeriod":59354318.00266414}}
